CCSDS_OMM_VERS = 2.0
CREATION_DATE  = 
ORIGINATOR     = 

OBJECT_NAME    = DELTA 2 R/B(1)
OBJECT_ID      = 1990-008B
CENTER_NAME    = EARTH
REF_FRAME      = TEME
TIME_SYSTEM    = UTC
MEAN_ELEMENT_THEORY = SGP/SGP4

EPOCH          = 2026-02-24T22:04:01.519392
MEAN_MOTION    = 15.54034713
ECCENTRICITY   = .008809
INCLINATION    = 35.6034
RA_OF_ASC_NODE = 258.5428
ARG_OF_PERICENTER = 139.8836
MEAN_ANOMALY   = 220.8445

EPHEMERIS_TYPE = 0
CLASSIFICATION_TYPE = U
NORAD_CAT_ID   = 20453
ELEMENT_SET_NO = 999
REV_AT_EPOCH   = 92414
BSTAR          = .75384E-3
MEAN_MOTION_DOT = .60269E-3
MEAN_MOTION_DDOT = 0

CCSDS_OMM_VERS = 2.0
CREATION_DATE  = 
ORIGINATOR     = 

OBJECT_NAME    = COSMOS 2058
OBJECT_ID      = 1990-010A
CENTER_NAME    = EARTH
REF_FRAME      = TEME
TIME_SYSTEM    = UTC
MEAN_ELEMENT_THEORY = SGP/SGP4

EPOCH          = 2026-02-25T11:09:49.434336
MEAN_MOTION    = 15.11196297
ECCENTRICITY   = .0010219
INCLINATION    = 82.4672
RA_OF_ASC_NODE = 59.4716
ARG_OF_PERICENTER = 24.4028
MEAN_ANOMALY   = 335.7683

EPHEMERIS_TYPE = 0
CLASSIFICATION_TYPE = U
NORAD_CAT_ID   = 20465
ELEMENT_SET_NO = 999
REV_AT_EPOCH   = 94039
BSTAR          = .22708E-3
MEAN_MOTION_DOT = .3844E-4
MEAN_MOTION_DDOT = 0

CCSDS_OMM_VERS = 2.0
CREATION_DATE  = 
ORIGINATOR     = 

OBJECT_NAME    = SL-14 R/B
OBJECT_ID      = 1990-010B
CENTER_NAME    = EARTH
REF_FRAME      = TEME
TIME_SYSTEM    = UTC
MEAN_ELEMENT_THEORY = SGP/SGP4

EPOCH          = 2026-02-25T01:47:03.317280
MEAN_MOTION    = 14.83556509
ECCENTRICITY   = .00194261
INCLINATION    = 82.4999
RA_OF_ASC_NODE = 279.2414
ARG_OF_PERICENTER = 345.8849
MEAN_ANOMALY   = 14.1821

EPHEMERIS_TYPE = 0
CLASSIFICATION_TYPE = U
NORAD_CAT_ID   = 20466
ELEMENT_SET_NO = 999
REV_AT_EPOCH   = 92661
BSTAR          = .38197232E-4
MEAN_MOTION_DOT = .339E-5
MEAN_MOTION_DDOT = 0

CCSDS_OMM_VERS = 2.0
CREATION_DATE  = 
ORIGINATOR     = 

OBJECT_NAME    = SL-14 R/B
OBJECT_ID      = 1990-018B
CENTER_NAME    = EARTH
REF_FRAME      = TEME
TIME_SYSTEM    = UTC
MEAN_ELEMENT_THEORY = SGP/SGP4

EPOCH          = 2026-02-25T11:38:32.593344
MEAN_MOTION    = 14.82129288
ECCENTRICITY   = .0017427
INCLINATION    = 82.5184
RA_OF_ASC_NODE = 234.4986
ARG_OF_PERICENTER = 129.1921
MEAN_ANOMALY   = 231.0845

EPHEMERIS_TYPE = 0
CLASSIFICATION_TYPE = U
NORAD_CAT_ID   = 20511
ELEMENT_SET_NO = 999
REV_AT_EPOCH   = 92077
BSTAR          = .57648E-4
MEAN_MOTION_DOT = .483E-5
MEAN_MOTION_DDOT = 0

CCSDS_OMM_VERS = 2.0
CREATION_DATE  = 
ORIGINATOR     = 

OBJECT_NAME    = HST
OBJECT_ID      = 1990-037B
CENTER_NAME    = EARTH
REF_FRAME      = TEME
TIME_SYSTEM    = UTC
MEAN_ELEMENT_THEORY = SGP/SGP4

EPOCH          = 2026-02-25T11:29:56.735232
MEAN_MOTION    = 15.29264569
ECCENTRICITY   = .0001281
INCLINATION    = 28.4690
RA_OF_ASC_NODE = 123.2830
ARG_OF_PERICENTER = 356.3147
MEAN_ANOMALY   = 3.7439

EPHEMERIS_TYPE = 0
CLASSIFICATION_TYPE = U
NORAD_CAT_ID   = 20580
ELEMENT_SET_NO = 999
REV_AT_EPOCH   = 77144
BSTAR          = .23324E-3
MEAN_MOTION_DOT = .7044E-4
MEAN_MOTION_DDOT = 0

CCSDS_OMM_VERS = 2.0
CREATION_DATE  = 
ORIGINATOR     = 

OBJECT_NAME    = SL-16 R/B
OBJECT_ID      = 1990-046B
CENTER_NAME    = EARTH
REF_FRAME      = TEME
TIME_SYSTEM    = UTC
MEAN_ELEMENT_THEORY = SGP/SGP4

EPOCH          = 2026-02-25T04:26:03.116256
MEAN_MOTION    = 14.15015286
ECCENTRICITY   = .00158177
INCLINATION    = 71.0016
RA_OF_ASC_NODE = 324.1764
ARG_OF_PERICENTER = 316.7358
MEAN_ANOMALY   = 43.2521

EPHEMERIS_TYPE = 0
CLASSIFICATION_TYPE = U
NORAD_CAT_ID   = 20625
ELEMENT_SET_NO = 999
REV_AT_EPOCH   = 84662
BSTAR          = .1622471E-4
MEAN_MOTION_DOT = -.16E-6
MEAN_MOTION_DDOT = 0

CCSDS_OMM_VERS = 2.0
CREATION_DATE  = 
ORIGINATOR     = 

OBJECT_NAME    = COSMOS 2084
OBJECT_ID      = 1990-055A
CENTER_NAME    = EARTH
REF_FRAME      = TEME
TIME_SYSTEM    = UTC
MEAN_ELEMENT_THEORY = SGP/SGP4

EPOCH          = 2026-02-25T07:15:00.001440
MEAN_MOTION    = 15.05559891
ECCENTRICITY   = .0019014
INCLINATION    = 62.7912
RA_OF_ASC_NODE = 17.8234
ARG_OF_PERICENTER = 187.1020
MEAN_ANOMALY   = 172.9814

EPHEMERIS_TYPE = 0
CLASSIFICATION_TYPE = U
NORAD_CAT_ID   = 20663
ELEMENT_SET_NO = 999
REV_AT_EPOCH   = 93445
BSTAR          = .20792E-3
MEAN_MOTION_DOT = .2818E-4
MEAN_MOTION_DDOT = 0

CCSDS_OMM_VERS = 2.0
CREATION_DATE  = 
ORIGINATOR     = 

OBJECT_NAME    = SL-6 R/B(2)
OBJECT_ID      = 1990-055D
CENTER_NAME    = EARTH
REF_FRAME      = TEME
TIME_SYSTEM    = UTC
MEAN_ELEMENT_THEORY = SGP/SGP4

EPOCH          = 2026-02-24T16:03:47.287584
MEAN_MOTION    = 15.03525271
ECCENTRICITY   = .00227315
INCLINATION    = 62.7831
RA_OF_ASC_NODE = 298.1277
ARG_OF_PERICENTER = 343.7050
MEAN_ANOMALY   = 16.3316

EPHEMERIS_TYPE = 0
CLASSIFICATION_TYPE = U
NORAD_CAT_ID   = 20666
ELEMENT_SET_NO = 999
REV_AT_EPOCH   = 93623
BSTAR          = .16563041E-3
MEAN_MOTION_DOT = .2082E-4
MEAN_MOTION_DDOT = 0

CCSDS_OMM_VERS = 2.0
CREATION_DATE  = 
ORIGINATOR     = 

OBJECT_NAME    = SL-8 R/B
OBJECT_ID      = 1990-078B
CENTER_NAME    = EARTH
REF_FRAME      = TEME
TIME_SYSTEM    = UTC
MEAN_ELEMENT_THEORY = SGP/SGP4

EPOCH          = 2026-02-25T01:48:07.602336
MEAN_MOTION    = 14.88598164
ECCENTRICITY   = .03650351
INCLINATION    = 82.9003
RA_OF_ASC_NODE = 262.6530
ARG_OF_PERICENTER = 56.3288
MEAN_ANOMALY   = 307.2179

EPHEMERIS_TYPE = 0
CLASSIFICATION_TYPE = U
NORAD_CAT_ID   = 20775
ELEMENT_SET_NO = 999
REV_AT_EPOCH   = 80742
BSTAR          = .37241067E-3
MEAN_MOTION_DOT = .12702E-3
MEAN_MOTION_DDOT = 0

CCSDS_OMM_VERS = 2.0
CREATION_DATE  = 
ORIGINATOR     = 

OBJECT_NAME    = SL-8 R/B
OBJECT_ID      = 1991-006B
CENTER_NAME    = EARTH
REF_FRAME      = TEME
TIME_SYSTEM    = UTC
MEAN_ELEMENT_THEORY = SGP/SGP4

EPOCH          = 2026-02-25T10:07:40.058688
MEAN_MOTION    = 13.77492849
ECCENTRICITY   = .0023625
INCLINATION    = 82.9460
RA_OF_ASC_NODE = 179.1653
ARG_OF_PERICENTER = 71.2528
MEAN_ANOMALY   = 352.9305

EPHEMERIS_TYPE = 0
CLASSIFICATION_TYPE = U
NORAD_CAT_ID   = 21088
ELEMENT_SET_NO = 999
REV_AT_EPOCH   = 76238
BSTAR          = .34635E-4
MEAN_MOTION_DOT = .5E-6
MEAN_MOTION_DDOT = 0

CCSDS_OMM_VERS = 2.0
CREATION_DATE  = 
ORIGINATOR     = 

OBJECT_NAME    = OKEAN-3
OBJECT_ID      = 1991-039A
CENTER_NAME    = EARTH
REF_FRAME      = TEME
TIME_SYSTEM    = UTC
MEAN_ELEMENT_THEORY = SGP/SGP4

EPOCH          = 2026-02-25T07:26:59.971776
MEAN_MOTION    = 15.04704906
ECCENTRICITY   = .0014859
INCLINATION    = 82.5201
RA_OF_ASC_NODE = 348.8333
ARG_OF_PERICENTER = 19.8146
MEAN_ANOMALY   = 340.3655

EPHEMERIS_TYPE = 0
CLASSIFICATION_TYPE = U
NORAD_CAT_ID   = 21397
ELEMENT_SET_NO = 999
REV_AT_EPOCH   = 86317
BSTAR          = .21844E-3
MEAN_MOTION_DOT = .3109E-4
MEAN_MOTION_DDOT = 0

CCSDS_OMM_VERS = 2.0
CREATION_DATE  = 
ORIGINATOR     = 

OBJECT_NAME    = COSMOS 2151
OBJECT_ID      = 1991-042A
CENTER_NAME    = EARTH
REF_FRAME      = TEME
TIME_SYSTEM    = UTC
MEAN_ELEMENT_THEORY = SGP/SGP4

EPOCH          = 2026-02-25T11:25:54.936192
MEAN_MOTION    = 15.00051463
ECCENTRICITY   = .001413
INCLINATION    = 82.4938
RA_OF_ASC_NODE = 95.4600
ARG_OF_PERICENTER = 100.1305
MEAN_ANOMALY   = 260.1514

EPHEMERIS_TYPE = 0
CLASSIFICATION_TYPE = U
NORAD_CAT_ID   = 21422
ELEMENT_SET_NO = 999
REV_AT_EPOCH   = 86136
BSTAR          = .11086E-3
MEAN_MOTION_DOT = .141E-4
MEAN_MOTION_DDOT = 0

