DELTA 2 R/B(1)          
1 20453U 90008B   26055.91946203  .00060269  00000+0  75384-3 0  9995
2 20453  35.6034 258.5428 0088090 139.8836 220.8445 15.54034713924142
COSMOS 2058             
1 20465U 90010A   26056.46515549  .00003844  00000+0  22708-3 0  9995
2 20465  82.4672  59.4716 0010219  24.4028 335.7683 15.11196297940395
SL-14 R/B               
1 20466U 90010B   26056.07434395  .00000339  00000+0  38197-4 0  9998
2 20466  82.4999 279.2414 0019426 345.8849  14.1821 14.83556509926610
SL-14 R/B               
1 20511U 90018B   26056.48509946  .00000483  00000+0  57648-4 0  9999
2 20511  82.5184 234.4986 0017427 129.1921 231.0845 14.82129288920774
HST                     
1 20580U 90037B   26056.47912888  .00007044  00000+0  23324-3 0  9991
2 20580  28.4690 123.2830 0001281 356.3147   3.7439 15.29264569771444
SL-16 R/B               
1 20625U 90046B   26056.18475829 -.00000016  00000+0  16225-4 0  9994
2 20625  71.0016 324.1764 0015817 316.7358  43.2521 14.15015286846620
COSMOS 2084             
1 20663U 90055A   26056.30208335  .00002818  00000+0  20792-3 0  9990
2 20663  62.7912  17.8234 0019014 187.1020 172.9814 15.05559891934450
SL-6 R/B(2)             
1 20666U 90055D   26055.66929731  .00002082  00000+0  16563-3 0  9995
2 20666  62.7831 298.1277 0022731 343.7050  16.3316 15.03525271936236
SL-8 R/B                
1 20775U 90078B   26056.07508799  .00012702  00000+0  37241-3 0  9990
2 20775  82.9003 262.6530 0365035  56.3288 307.2179 14.88598164807427
SL-8 R/B                
1 21088U 91006B   26056.42199142  .00000050  00000+0  34635-4 0  9995
2 21088  82.9460 179.1653 0023625  71.2528 352.9305 13.77492849762382
OKEAN-3                 
1 21397U 91039A   26056.31041634  .00003109  00000+0  21844-3 0  9999
2 21397  82.5201 348.8333 0014859  19.8146 340.3655 15.04704906863177
COSMOS 2151             
1 21422U 91042A   26056.47633028  .00001410  00000+0  11086-3 0  9993
2 21422  82.4938  95.4600 0014130 100.1305 260.1514 15.00051463861368
